CTC1_L_00399001-01
1 57131U 22718NV  26037.47805556  .00000000  00000+0  00000-0 0  9994
2 57131  60.0000   0.0000 0000000   0.0000   0.0000 12.90383911    13
CTC1_L_00399001-02
1 57132U 23357UL  26037.47805556  .00000000  00000+0  00000-0 0  9995
2 57132  60.0000   0.0000 0000000   0.0000  90.0000 12.90383911    13
CTC1_L_00399001-03
1 57133U 26796IY  26037.47805556  .00000000  00000+0  00000-0 0  9996
2 57133  60.0000   0.0000 0000000   0.0000 180.0000 12.90383911    14
CTC1_L_00399001-04
1 57134U 22152FA  26037.47805556  .00000000  00000+0  00000-0 0  9999
2 57134  60.0000   0.0000 0000000   0.0000 270.0000 12.90383911    15
CTC1_L_00399002-01
1 57135U 22310VJ  26037.47805556  .00000000  00000+0  00000-0 0  9996
2 57135  60.0000  12.0000 0000000   0.0000  12.0000 12.90383911    13
CTC1_L_00399002-02
1 57136U 24317QU  26037.47805556  .00000000  00000+0  00000-0 0  9996
2 57136  60.0000  12.0000 0000000   0.0000 102.0000 12.90383911    14
CTC1_L_00399002-03
1 57137U 26058XQ  26037.47805556  .00000000  00000+0  00000-0 0  9991
2 57137  60.0000  12.0000 0000000   0.0000 192.0000 12.90383911    14
CTC1_L_00399002-04
1 57138U 25990OF  26037.47805556  .00000000  00000+0  00000-0 0  9996
2 57138  60.0000  12.0000 0000000   0.0000 282.0000 12.90383911    15
CTC1_L_00399003-01
1 57139U 24901ZK  26037.47805556  .00000000  00000+0  00000-0 0  9998
2 57139  60.0000  24.0000 0000000   0.0000  24.0000 12.90383911    13
CTC1_L_00399003-02
1 57140U 26010GW  26037.47805556  .00000000  00000+0  00000-0 0  9993
2 57140  60.0000  24.0000 0000000   0.0000 114.0000 12.90383911    15
CTC1_L_00399003-03
1 57141U 23876SX  26037.47805556  .00000000  00000+0  00000-0 0  9991
2 57141  60.0000  24.0000 0000000   0.0000 204.0000 12.90383911    16
CTC1_L_00399003-04
1 57142U 26289GM  26037.47805556  .00000000  00000+0  00000-0 0  9993
2 57142  60.0000  24.0000 0000000   0.0000 294.0000 12.90383911    16
CTC1_L_00399004-01
1 57143U 24712IQ  26037.47805556  .00000000  00000+0  00000-0 0  9993
2 57143  60.0000  36.0000 0000000   0.0000  36.0000 12.90383911    14
CTC1_L_00399004-02
1 57144U 25616XX  26037.47805556  .00000000  00000+0  00000-0 0  9998
2 57144  60.0000  36.0000 0000000   0.0000 126.0000 12.90383911    15
CTC1_L_00399004-03
1 57145U 25506EZ  26037.47805556  .00000000  00000+0  00000-0 0  9997
2 57145  60.0000  36.0000 0000000   0.0000 216.0000 12.90383911    16
CTC1_L_00399004-04
1 57146U 23885DE  26037.47805556  .00000000  00000+0  00000-0 0  9996
2 57146  60.0000  36.0000 0000000   0.0000 306.0000 12.90383911    17
CTC1_L_00399005-01
1 57147U 26506QD  26037.47805556  .00000000  00000+0  00000-0 0  9990
2 57147  60.0000  48.0000 0000000   0.0000  48.0000 12.90383911    14
CTC1_L_00399005-02
1 57148U 24315OA  26037.47805556  .00000000  00000+0  00000-0 0  9997
2 57148  60.0000  48.0000 0000000   0.0000 138.0000 12.90383911    15
CTC1_L_00399005-03
1 57149U 23447ZS  26037.47805556  .00000000  00000+0  00000-0 0  9993
2 57149  60.0000  48.0000 0000000   0.0000 228.0000 12.90383911    16
CTC1_L_00399005-04
1 57150U 24074HU  26037.47805556  .00000000  00000+0  00000-0 0  9992
2 57150  60.0000  48.0000 0000000   0.0000 318.0000 12.90383911    18
CTC1_L_00399006-01
1 57151U 24003QR  26037.47805556  .00000000  00000+0  00000-0 0  9995
2 57151  60.0000  60.0000 0000000   0.0000  60.0000 12.90383911    17
CTC1_L_00399006-02
1 57152U 23033AG  26037.47805556  .00000000  00000+0  00000-0 0  9998
2 57152  60.0000  60.0000 0000000   0.0000 150.0000 12.90383911    18
CTC1_L_00399006-03
1 57153U 24966WK  26037.47805556  .00000000  00000+0  00000-0 0  9995
2 57153  60.0000  60.0000 0000000   0.0000 240.0000 12.90383911    19
CTC1_L_00399006-04
1 57154U 22530WY  26037.47805556  .00000000  00000+0  00000-0 0  9991
2 57154  60.0000  60.0000 0000000   0.0000 330.0000 12.90383911    10
CTC1_L_00399007-01
1 57155U 25851SK  26037.47805556  .00000000  00000+0  00000-0 0  9991
2 57155  60.0000  72.0000 0000000   0.0000  72.0000 12.90383911    17
CTC1_L_00399007-02
1 57156U 23038WD  26037.47805556  .00000000  00000+0  00000-0 0  9997
2 57156  60.0000  72.0000 0000000   0.0000 162.0000 12.90383911    18
CTC1_L_00399007-03
1 57157U 26179AF  26037.47805556  .00000000  00000+0  00000-0 0  9997
2 57157  60.0000  72.0000 0000000   0.0000 252.0000 12.90383911    19
CTC1_L_00399007-04
1 57158U 23185GZ  26037.47805556  .00000000  00000+0  00000-0 0  9992
2 57158  60.0000  72.0000 0000000   0.0000 342.0000 12.90383911    10
CTC1_L_00399008-01
1 57159U 22972P   26037.47805556  .00000000  00000+0  00000-0 0  9996
2 57159  60.0000  84.0000 0000000   0.0000  84.0000 12.90383911    17
CTC1_L_00399008-02
1 57160U 25542NV  26037.47805556  .00000000  00000+0  00000-0 0  9994
2 57160  60.0000  84.0000 0000000   0.0000 174.0000 12.90383911    19
CTC1_L_00399008-03
1 57161U 23469AY  26037.47805556  .00000000  00000+0  00000-0 0  9991
2 57161  60.0000  84.0000 0000000   0.0000 264.0000 12.90383911    10
CTC1_L_00399008-04
1 57162U 24709PW  26037.47805556  .00000000  00000+0  00000-0 0  9990
2 57162  60.0000  84.0000 0000000   0.0000 354.0000 12.90383911    11
CTC1_L_00399009-01
1 57163U 26514DZ  26037.47805556  .00000000  00000+0  00000-0 0  9997
2 57163  60.0000  96.0000 0000000   0.0000  96.0000 12.90383911    18
CTC1_L_00399009-02
1 57164U 26193FK  26037.47805556  .00000000  00000+0  00000-0 0  9991
2 57164  60.0000  96.0000 0000000   0.0000 186.0000 12.90383911    19
CTC1_L_00399009-03
1 57165U 25449WC  26037.47805556  .00000000  00000+0  00000-0 0  9995
2 57165  60.0000  96.0000 0000000   0.0000 276.0000 12.90383911    10
CTC1_L_00399009-04
1 57166U 22542YA  26037.47805556  .00000000  00000+0  00000-0 0  9997
2 57166  60.0000  96.0000 0000000   0.0000   6.0000 12.90383911    12
CTC1_L_00399010-01
1 57167U 25439JD  26037.47805556  .00000000  00000+0  00000-0 0  9996
2 57167  60.0000 108.0000 0000000   0.0000 108.0000 12.90383911    10
CTC1_L_00399010-02
1 57168U 23554QA  26037.47805556  .00000000  00000+0  00000-0 0  9993
2 57168  60.0000 108.0000 0000000   0.0000 198.0000 12.90383911    10
CTC1_L_00399010-03
1 57169U 26948KC  26037.47805556  .00000000  00000+0  00000-0 0  9994
2 57169  60.0000 108.0000 0000000   0.0000 288.0000 12.90383911    11
CTC1_L_00399010-04
1 57170U 24949RS  26037.47805556  .00000000  00000+0  00000-0 0  9995
2 57170  60.0000 108.0000 0000000   0.0000  18.0000 12.90383911    14
CTC1_L_00399011-01
1 57171U 23476XB  26037.47805556  .00000000  00000+0  00000-0 0  9990
2 57171  60.0000 120.0000 0000000   0.0000 120.0000 12.90383911    13
CTC1_L_00399011-02
1 57172U 23509CZ  26037.47805556  .00000000  00000+0  00000-0 0  9998
2 57172  60.0000 120.0000 0000000   0.0000 210.0000 12.90383911    14
CTC1_L_00399011-03
1 57173U 25556RS  26037.47805556  .00000000  00000+0  00000-0 0  9993
2 57173  60.0000 120.0000 0000000   0.0000 300.0000 12.90383911    15
CTC1_L_00399011-04
1 57174U 22058TL  26037.47805556  .00000000  00000+0  00000-0 0  9998
2 57174  60.0000 120.0000 0000000   0.0000  30.0000 12.90383911    16
CTC1_L_00399012-01
1 57175U 22004CZ  26037.47805556  .00000000  00000+0  00000-0 0  9990
2 57175  60.0000 132.0000 0000000   0.0000 132.0000 12.90383911    13
CTC1_L_00399012-02
1 57176U 26266ZR  26037.47805556  .00000000  00000+0  00000-0 0  9995
2 57176  60.0000 132.0000 0000000   0.0000 222.0000 12.90383911    14
CTC1_L_00399012-03
1 57177U 25153EK  26037.47805556  .00000000  00000+0  00000-0 0  9990
2 57177  60.0000 132.0000 0000000   0.0000 312.0000 12.90383911    15
CTC1_L_00399012-04
1 57178U 24060BS  26037.47805556  .00000000  00000+0  00000-0 0  9997
2 57178  60.0000 132.0000 0000000   0.0000  42.0000 12.90383911    16
CTC1_L_00399013-01
1 57179U 22811L   26037.47805556  .00000000  00000+0  00000-0 0  9990
2 57179  60.0000 144.0000 0000000   0.0000 144.0000 12.90383911    13
CTC1_L_00399013-02
1 57180U 22100YU  26037.47805556  .00000000  00000+0  00000-0 0  9993
2 57180  60.0000 144.0000 0000000   0.0000 234.0000 12.90383911    15
CTC1_L_00399013-03
1 57181U 25806OW  26037.47805556  .00000000  00000+0  00000-0 0  9990
2 57181  60.0000 144.0000 0000000   0.0000 324.0000 12.90383911    16
CTC1_L_00399013-04
1 57182U 26864UL  26037.47805556  .00000000  00000+0  00000-0 0  9996
2 57182  60.0000 144.0000 0000000   0.0000  54.0000 12.90383911    17
CTC1_L_00399014-01
1 57183U 22912RC  26037.47805556  .00000000  00000+0  00000-0 0  9997
2 57183  60.0000 156.0000 0000000   0.0000 156.0000 12.90383911    14
CTC1_L_00399014-02
1 57184U 24927NQ  26037.47805556  .00000000  00000+0  00000-0 0  9996
2 57184  60.0000 156.0000 0000000   0.0000 246.0000 12.90383911    15
CTC1_L_00399014-03
1 57185U 24842KM  26037.47805556  .00000000  00000+0  00000-0 0  9993
2 57185  60.0000 156.0000 0000000   0.0000 336.0000 12.90383911    16
CTC1_L_00399014-04
1 57186U 24758KZ  26037.47805556  .00000000  00000+0  00000-0 0  9990
2 57186  60.0000 156.0000 0000000   0.0000  66.0000 12.90383911    17
CTC1_L_00399015-01
1 57187U 23937YZ  26037.47805556  .00000000  00000+0  00000-0 0  9999
2 57187  60.0000 168.0000 0000000   0.0000 168.0000 12.90383911    14
CTC1_L_00399015-02
1 57188U 22902K   26037.47805556  .00000000  00000+0  00000-0 0  9991
2 57188  60.0000 168.0000 0000000   0.0000 258.0000 12.90383911    15
CTC1_L_00399015-03
1 57189U 25888JZ  26037.47805556  .00000000  00000+0  00000-0 0  9998
2 57189  60.0000 168.0000 0000000   0.0000 348.0000 12.90383911    16
CTC1_L_00399015-04
1 57190U 26043HO  26037.47805556  .00000000  00000+0  00000-0 0  9994
2 57190  60.0000 168.0000 0000000   0.0000  78.0000 12.90383911    18
CTC1_L_00399016-01
1 57191U 24591OW  26037.47805556  .00000000  00000+0  00000-0 0  9991
2 57191  60.0000 180.0000 0000000   0.0000 180.0000 12.90383911    17
CTC1_L_00399016-02
1 57192U 25797WR  26037.47805556  .00000000  00000+0  00000-0 0  9991
2 57192  60.0000 180.0000 0000000   0.0000 270.0000 12.90383911    18
